[{"OBJECT_NAME":"TIANQI-40","OBJECT_ID":"2026-010D","EPOCH":"2026-03-09T13:59:28.118112","MEAN_MOTION":13.99111131,"ECCENTRICITY":0.0011419,"INCLINATION":44.9822,"RA_OF_ASC_NODE":165.0841,"ARG_OF_PERICENTER":228.5546,"MEAN_ANOMALY":131.4306,"EPHEMERIS_TYPE":0,"CLASSIFICATION_TYPE":"U","NORAD_CAT_ID":67479,"ELEMENT_SET_NO":999,"REV_AT_EPOCH":744,"BSTAR":0.00022524,"MEAN_MOTION_DOT":2.0e-6,"MEAN_MOTION_DDOT":0},{"OBJECT_NAME":"FENGYUN 1C DEB","OBJECT_ID":"1999-025KB","EPOCH":"2026-03-09T21:52:40.821312","MEAN_MOTION":13.90934714,"ECCENTRICITY":0.01071482,"INCLINATION":98.9484,"RA_OF_ASC_NODE":57.5876,"ARG_OF_PERICENTER":29.1139,"MEAN_ANOMALY":35.8147,"EPHEMERIS_TYPE":0,"CLASSIFICATION_TYPE":"U","NORAD_CAT_ID":29953,"ELEMENT_SET_NO":999,"REV_AT_EPOCH":97074,"BSTAR":0.00051904611,"MEAN_MOTION_DOT":6.39e-6,"MEAN_MOTION_DDOT":0}]
